0 FENGYUN 1C DEB
1 31037U 99025BEF 13281.32279574  .00009120  00000-0  28274-2 0  9327
2 31037 099.0739 043.1053 0054444 096.2560 293.4950 14.40510402341852
0 FENGYUN 1C DEB
1 31037U 99025BEF 13282.29583102  .00016581  00000-0  51168-2 0  9337
2 31037 099.0746 044.1366 0055081 093.4409 299.4878 14.40544198341996
0 FENGYUN 1C DEB
1 31037U 99025BEF 13283.14695837  .00013547  00000-0  41839-2 0  9345
2 31037 099.0740 045.0385 0054990 090.9521 033.4103 14.40562831342112
0 FENGYUN 1C DEB
1 31037U 99025BEF 13284.31426287  .00013717  00000-0  42345-2 0  9359
2 31037 099.0736 046.2757 0054814 087.4734 327.1757 14.40586536342289
0 FENGYUN 1C DEB
1 31037U 99025BEF 13284.88371248  .00012842  00000-0  39653-2 0  9364
2 31037 099.0734 046.8794 0054626 085.7848 040.4239 14.40601003342368
0 FENGYUN 1C DEB
1 31037U 99025BEF 13287.30229417  .00011565  00000-0  35705-2 0  9370
2 31037 099.0736 049.4435 0054250 078.5203 343.9319 14.40646752342718
0 FENGYUN 1C DEB
1 31037U 99025BEF 13289.31025381  .00014984  00000-0  46142-2 0  9383
2 31037 099.0739 051.5730 0054164 072.6248 318.0721 14.40703539343001
0 FENGYUN 1C DEB
1 31037U 99025BEF 13292.30407212  .00013049  00000-0  40155-2 0  9393
2 31037 099.0736 054.7447 0053974 063.5593 006.3017 14.40781108343438
0 FENGYUN 1C DEB
1 31037U 99025BEF 13293.33685830  .00013682  00000-0  42057-2 0  9409
2 31037 099.0723 055.8331 0054588 060.7649 322.9603 14.40803019343570
0 FENGYUN 1C DEB
1 31037U 99025BEF 13294.81973019  .00016289  00000-0  50031-2 0  9410
2 31037 099.0748 057.4172 0053241 055.7037 095.2266 14.40835726343797
